NORAD_CAT_ID,OBJECT_NAME,OBJECT_TYPE,EPOCH,MEAN_MOTION,ECCENTRICITY,INCLINATION,RA_OF_ASC_NODE,ARG_OF_PERICENTER,MEAN_ANOMALY,BSTAR,MEAN_MOTION_DOT,MEAN_MOTION_DDOT,TLE_LINE0,TLE_LINE1,TLE_LINE2,SEMIMAJOR_AXIS,PERIOD,APOGEE,PERIGEE,DECAYED
55754.0,STARLINK-5612,PAYLOAD,2023-05-26 13:01:09,14.98329165,0.000329,70.0003,291.4834,270.6832,89.395,8.0218e-06,3e-08,0.0,0 STARLINK-5612,1 55754U 23028P   23146.54246739  .00000003  00000-0  80218-5 0  9994,2 55754  70.0003 291.4834 0003290 270.6832  89.3950 14.98329165 13535,6950.195,96.107,574.347,569.774,0.0
55754.0,STARLINK-5612,PAYLOAD,2023-05-26 17:49:33,14.98330682,0.0003279,70.0003,290.978,270.5277,89.5506,1.6506e-05,1.04e-06,0.0,0 STARLINK-5612,1 55754U 23028P   23146.74274612  .00000104  00000-0  16506-4 0  9997,2 55754  70.0003 290.9780 0003279 270.5277  89.5506 14.98330682 13566,6950.191,96.107,574.335,569.777,0.0
55754.0,STARLINK-5612,PAYLOAD,2023-05-26 19:25:41,14.98331346,0.0003278,70.0004,290.8098,270.5529,89.5254,2.3657e-05,1.89e-06,0.0,0 STARLINK-5612,1 55754U 23028P   23146.80950544  .00000189  00000-0  23657-4 0  9997,2 55754  70.0004 290.8098 0003278 270.5529  89.5254 14.98331346 13576,6950.189,96.107,574.332,569.775,0.0
55754.0,STARLINK-5612,PAYLOAD,2023-05-27 19:27:42,14.98331148,0.000335,70.0003,288.2851,269.0607,91.0169,1.6076e-05,9.9e-07,0.0,0 STARLINK-5612,1 55754U 23028P   23147.81090486  .00000099  00000-0  16076-4 0  9996,2 55754  70.0003 288.2851 0003350 269.0607  91.0169 14.98331148 13724,6950.189,96.107,574.383,569.726,0.0
55754.0,STARLINK-5612,PAYLOAD,2023-05-28 19:29:42,14.98337848,0.0003399,70.0002,285.7605,268.6976,91.3794,5.3656e-05,5.47e-06,0.0,0 STARLINK-5612,1 55754U 23028P   23148.81229711  .00000547  00000-0  53656-4 0  9995,2 55754  70.0002 285.7605 0003399 268.6976  91.3794 14.98337848 13875,6950.169,96.106,574.396,569.671,0.0
55754.0,STARLINK-5612,PAYLOAD,2023-05-29 09:54:55,14.98330507,0.0003324,70.0004,284.2457,268.3273,91.7505,-2.7804e-05,-4.25e-06,0.0,0 STARLINK-5612,1 55754U 23028P   23149.41314268 -.00000425  00000-0 -27804-4 0  9997,2 55754  70.0004 284.2457 0003324 268.3273  91.7505 14.98330507 13960,6950.191,96.107,574.367,569.746,0.0
55754.0,STARLINK-5612,PAYLOAD,2023-05-29 14:43:19,14.98330543,0.0003325,70.0004,283.7408,268.3284,91.7494,-2.661e-05,-4.11e-06,0.0,0 STARLINK-5612,1 55754U 23028P   23149.61342240 -.00000411  00000-0 -26610-4 0  9999,2 55754  70.0004 283.7408 0003325 268.3284  91.7494 14.98330543 13993,6950.191,96.107,574.367,569.745,0.0
55754.0,STARLINK-5612,PAYLOAD,2023-05-29 17:55:35,14.9833062,0.0003246,70.0007,283.4048,265.9727,94.1061,-1.1853e-05,-2.34e-06,0.0,0 STARLINK-5612,1 55754U 23028P   23149.74694167 -.00000234  00000-0 -11853-4 0  9997,2 55754  70.0007 283.4048 0003246 265.9727  94.1061 14.98330620 14017,6950.191,96.107,574.312,569.8,0.0
55754.0,STARLINK-5612,PAYLOAD,2023-05-30 09:56:56,14.98330891,0.0003167,70.0011,281.7217,266.9795,93.1002,-5.9374e-05,-8.01e-06,0.0,0 STARLINK-5612,1 55754U 23028P   23150.41454258 -.00000801  00000-0 -59374-4 0  9998,2 55754  70.0011 281.7217 0003167 266.9795  93.1002 14.98330891 14114,6950.19,96.107,574.256,569.854,0.0
55754.0,STARLINK-5612,PAYLOAD,2023-05-30 11:33:04,14.98330376,0.0003472,70.0002,281.5524,268.6263,91.4498,-8.0374e-05,-1.052e-05,0.0,0 STARLINK-5612,1 55754U 23028P   23150.48130279 -.00001052  00000-0 -80374-4 0  9992,2 55754  70.0002 281.5524 0003472 268.6263  91.4498 14.98330376 14120,6950.192,96.107,574.47,569.644,0.0
55754.0,STARLINK-5612,PAYLOAD,2023-05-30 16:21:28,14.98332623,0.000343,70.0003,281.0479,267.5871,92.4896,-4.1324e-05,-5.86e-06,0.0,0 STARLINK-5612,1 55754U 23028P   23150.68158005 -.00000586  00000-0 -41324-4 0  9994,2 55754  70.0003 281.0479 0003430 267.5871  92.4896 14.98332623 14155,6950.185,96.107,574.434,569.666,0.0
55754.0,STARLINK-5612,PAYLOAD,2023-05-31 09:58:57,14.98326808,0.0003419,70.0004,279.1963,269.5016,90.5751,-3.0904e-05,-4.62e-06,0.0,0 STARLINK-5612,1 55754U 23028P   23151.41594291 -.00000462  00000-0 -30904-4 0  9992,2 55754  70.0004 279.1963 0003419 269.5016  90.5751 14.98326808 14261,6950.203,96.107,574.444,569.691,0.0
55754.0,STARLINK-5612,PAYLOAD,2023-05-31 13:11:13,14.98327377,0.0003412,70.0005,278.8597,269.5078,90.569,-2.2643e-05,-3.63e-06,0.0,0 STARLINK-5612,1 55754U 23028P   23151.54946251 -.00000363  00000-0 -22643-4 0  9994,2 55754  70.0005 278.8597 0003412 269.5078  90.5690 14.98327377 14288,6950.201,96.107,574.437,569.695,0.0
55754.0,STARLINK-5612,PAYLOAD,2023-05-31 17:59:37,14.98330105,0.0003324,70.0004,278.3544,269.7146,90.3632,1.1647e-05,4.6e-07,0.0,0 STARLINK-5612,1 55754U 23028P   23151.74973995  .00000046  00000-0  11647-4 0  9999,2 55754  70.0004 278.3544 0003324 269.7146  90.3632 14.98330105 14315,6950.193,96.107,574.368,569.747,0.0
55754.0,STARLINK-5612,PAYLOAD,2023-06-01 10:00:58,14.98326555,0.0003402,70.0005,276.6712,269.1532,90.9237,8.4649e-06,8e-08,0.0,0 STARLINK-5612,1 55754U 23028P   23152.41734252  .00000008  00000-0  84649-5 0  9996,2 55754  70.0005 276.6712 0003402 269.1532  90.9237 14.98326555 14416,6950.204,96.107,574.433,569.704,0.0
55754.0,STARLINK-5612,PAYLOAD,2023-06-02 10:02:59,14.98326608,0.0003355,70.0001,274.1458,268.1038,91.9737,9.3672e-06,1.9e-07,0.0,0 STARLINK-5612,1 55754U 23028P   23153.41874254  .00000019  00000-0  93672-5 0  9992,2 55754  70.0001 274.1458 0003355 268.1038  91.9737 14.98326608 14560,6950.203,96.107,574.4,569.737,0.0
55754.0,STARLINK-5612,PAYLOAD,2023-06-02 13:15:15,14.98326514,0.0003362,70.0001,273.8091,268.0908,91.9866,8.3697e-06,7e-08,0.0,0 STARLINK-5612,1 55754U 23028P   23153.55226288  .00000007  00000-0  83697-5 0  9998,2 55754  70.0001 273.8091 0003362 268.0908  91.9866 14.98326514 14583,6950.204,96.107,574.405,569.732,0.0
55754.0,STARLINK-5612,PAYLOAD,2023-06-02 18:03:39,14.98328135,0.0003412,70.0001,273.304,267.1495,92.9274,-1.6667e-05,-2.92e-06,0.0,0 STARLINK-5612,1 55754U 23028P   23153.75254269 -.00000292  00000-0 -16667-4 0  9990,2 55754  70.0001 273.3040 0003412 267.1495  92.9274 14.98328135 14618,6950.199,96.107,574.435,569.692,0.0
55754.0,STARLINK-5612,PAYLOAD,2023-06-03 10:05:00,14.98326797,0.0003397,70.0,271.6205,266.4633,93.6138,-1.8505e-05,-3.14e-06,0.0,0 STARLINK-5612,1 55754U 23028P   23154.42014460 -.00000314  00000-0 -18505-4 0  9990,2 55754  70.0000 271.6205 0003397 266.4633  93.6138 14.98326797 14719,6950.203,96.107,574.429,569.707,0.0
55754.0,STARLINK-5612,PAYLOAD,2023-06-03 13:17:16,14.98327355,0.0003372,70.0002,271.2839,266.7902,93.2871,-1.5108e-05,-2.73e-06,0.0,0 STARLINK-5612,1 55754U 23028P   23154.55366443 -.00000273  00000-0 -15108-4 0  9995,2 55754  70.0002 271.2839 0003372 266.7902  93.2871 14.98327355 14738,6950.201,96.107,574.41,569.722,0.0
55754.0,STARLINK-5612,PAYLOAD,2023-06-03 18:05:40,14.9833117,0.0003403,70.0003,270.7794,268.7449,91.332,-8.8721e-06,-1.99e-06,0.0,0 STARLINK-5612,1 55754U 23028P   23154.75394208 -.00000199  00000-0 -88721-5 0  9996,2 55754  70.0003 270.7794 0003403 268.7449  91.3320 14.98331170 14767,6950.189,96.107,574.419,569.689,0.0
55754.0,STARLINK-5612,PAYLOAD,2023-06-04 10:07:01,14.98328515,0.0003432,70.0003,269.0968,270.4776,89.599,3.7147e-05,3.5e-06,0.0,0 STARLINK-5612,1 55754U 23028P   23155.42154287  .00000350  00000-0  37147-4 0  9994,2 55754  70.0003 269.0968 0003432 270.4776  89.5990 14.98328515 14868,6950.197,96.107,574.448,569.677,0.0
55754.0,STARLINK-5612,PAYLOAD,2023-06-04 13:19:17,14.98329409,0.0003422,70.0004,268.7602,270.7263,89.3504,4.4673e-05,4.4e-06,0.0,0 STARLINK-5612,1 55754U 23028P   23155.55506221  .00000440  00000-0  44673-4 0  9999,2 55754  70.0004 268.7602 0003422 270.7263  89.3504 14.98329409 14887,6950.195,96.107,574.438,569.681,0.0
55754.0,STARLINK-5612,PAYLOAD,2023-06-04 18:07:41,14.98331423,0.0003367,70.0005,268.2555,268.4425,91.6349,6.7886e-05,7.17e-06,0.0,0 STARLINK-5612,1 55754U 23028P   23155.75534013  .00000717  00000-0  67886-4 0  9999,2 55754  70.0005 268.2555 0003367 268.4425  91.6349 14.98331423 14918,6950.188,96.107,574.394,569.713,0.0
55754.0,STARLINK-5612,PAYLOAD,2023-06-05 10:09:01,14.98333171,0.0003432,70.0003,266.5718,270.5572,89.5193,3.7417e-05,3.53e-06,0.0,0 STARLINK-5612,1 55754U 23028P   23156.42293909  .00000353  00000-0  37417-4 0  9993,2 55754  70.0003 266.5718 0003432 270.5572  89.5193 14.98333171 15015,6950.183,96.107,574.433,569.663,0.0
55754.0,STARLINK-5612,PAYLOAD,2023-06-05 13:21:17,14.98334682,0.000343,70.0004,266.2356,268.8247,91.2519,5.01e-05,5.05e-06,0.0,0 STARLINK-5612,1 55754U 23028P   23156.55645731  .00000505  00000-0  50100-4 0  9994,2 55754  70.0004 266.2356 0003430 268.8247  91.2519 14.98334682 15030,6950.178,96.107,574.427,569.66,0.0
55754.0,STARLINK-5612,PAYLOAD,2023-06-05 16:33:33,14.98335106,0.0003428,70.0004,265.899,268.8491,91.2276,5.2873e-05,5.38e-06,0.0,0 STARLINK-5612,1 55754U 23028P   23156.68997655  .00000538  00000-0  52873-4 0  9998,2 55754  70.0004 265.8990 0003428 268.8491  91.2276 14.98335106 15051,6950.177,96.107,574.425,569.66,0.0
55754.0,STARLINK-5612,PAYLOAD,2023-06-06 08:34:55,14.98327697,0.0003333,70.0006,264.2159,267.9971,92.0806,-5.0416e-05,-6.95e-06,0.0,0 STARLINK-5612,1 55754U 23028P   23157.35758336 -.00000695  00000-0 -50416-4 0  9991,2 55754  70.0006 264.2159 0003333 267.9971  92.0806 14.98327697 15156,6950.2,96.107,574.382,569.749,0.0
55754.0,STARLINK-5612,PAYLOAD,2023-06-06 11:47:11,14.98327381,0.0003339,70.0006,263.8793,268.0073,92.0703,-5.2336e-05,-7.17e-06,0.0,0 STARLINK-5612,1 55754U 23028P   23157.49110370 -.00000717  00000-0 -52336-4 0  9994,2 55754  70.0006 263.8793 0003339 268.0073  92.0703 14.98327381 15174,6950.201,96.107,574.387,569.745,0.0
55754.0,STARLINK-5612,PAYLOAD,2023-06-06 16:35:35,14.98329389,0.0003339,70.0007,263.3742,267.6108,92.4669,-3.8067e-05,-5.47e-06,0.0,0 STARLINK-5612,1 55754U 23028P   23157.69138201 -.00000547  00000-0 -38067-4 0  9995,2 55754  70.0007 263.3742 0003339 267.6108  92.4669 14.98329389 15207,6950.195,96.107,574.38,569.739,0.0
